[{"OBJECT_NAME":"STARLINK-5948","OBJECT_ID":"2023-042F","EPOCH":"2026-03-09T22:00:01.999584","MEAN_MOTION":15.16709468,"ECCENTRICITY":0.00018493,"INCLINATION":43.0003,"RA_OF_ASC_NODE":54.3638,"ARG_OF_PERICENTER":224.2844,"MEAN_ANOMALY":23.8893,"EPHEMERIS_TYPE":0,"CLASSIFICATION_TYPE":"U","NORAD_CAT_ID":55991,"ELEMENT_SET_NO":999,"REV_AT_EPOCH":573,"BSTAR":0.060578731,"MEAN_MOTION_DOT":0.01311202,"MEAN_MOTION_DDOT":0},{"OBJECT_NAME":"VSP RF C1","OBJECT_ID":"2024-043AQ","EPOCH":"2026-03-09T21:56:05.358624","MEAN_MOTION":15.29409663,"ECCENTRICITY":0.00093965,"INCLINATION":97.5441,"RA_OF_ASC_NODE":205.1792,"ARG_OF_PERICENTER":219.6172,"MEAN_ANOMALY":140.4382,"EPHEMERIS_TYPE":0,"CLASSIFICATION_TYPE":"U","NORAD_CAT_ID":59136,"ELEMENT_SET_NO":999,"REV_AT_EPOCH":11190,"BSTAR":0.00026222052,"MEAN_MOTION_DOT":7.409e-5,"MEAN_MOTION_DDOT":0}]
